{"type": "FeatureCollection", "features": [ {"type": "Feature", "properties": {"norad_id": 66581, "name": "STARLINK-35744", "group": "last-30-days", "lat": 6.521018336696088, "lon": -7.157984715800372, "alt_km": 342.6855477742556, "timestamp": "2025-12-02T19:35:49.344171+00:00", "meta": {"OBJECT_NAME": "STARLINK-35744", "OBJECT_ID": "2025-268AA", "EPOCH": "2025-12-02T12:00:05.998752", "MEAN_MOTION": 15.76516234, "ECCENTRICITY": 0.0001603, "INCLINATION": 42.9978, "RA_OF_ASC_NODE": 181.8118, "ARG_OF_PERICENTER": 266.5295, "MEAN_ANOMALY": 266.1486, "EPHEMERIS_TYPE": 0, "CLASSIFICATION_TYPE": "U", "NORAD_CAT_ID": 66581, "ELEMENT_SET_NO": 999, "REV_AT_EPOCH": 297, "BSTAR": -0.011453, "MEAN_MOTION_DOT": -0.01664892, "MEAN_MOTION_DDOT": 0}, "tle": {"line1": "1 66581U 25268AA  25336.50006943 -.01664892  00000+0 -11453-1 0  9997", "line2": "2 66581  42.9978 181.8118 0001603 266.5295 266.1486 15.76516234  2971"}}, "geometry": {"type": "Point", "coordinates": [-7.157984715800372, 6.521018336696088]}}, {"type": "Feature", "properties": {"norad_id": 66582, "name": "STARLINK-35746", "group": "last-30-days", "lat": 5.205358019193115, "lon": -5.726925755103884, "alt_km": 343.393050515675, "timestamp": "2025-12-02T19:35:49.344181+00:00", "meta": {"OBJECT_NAME": "STARLINK-35746", "OBJECT_ID": "2025-268AB", "EPOCH": "2025-12-02T12:00:05.998752", "MEAN_MOTION": 15.7642791, "ECCENTRICITY": 0.0001494, "INCLINATION": 42.9979, "RA_OF_ASC_NODE": 181.8068, "ARG_OF_PERICENTER": 278.3926, "MEAN_ANOMALY": 256.3365, "EPHEMERIS_TYPE": 0, "CLASSIFICATION_TYPE": "U", "NORAD_CAT_ID": 66582, "ELEMENT_SET_NO": 999, "REV_AT_EPOCH": 302, "BSTAR": -0.011691, "MEAN_MOTION_DOT": -0.01689532, "MEAN_MOTION_DDOT": 0}, "tle": {"line1": "1 66582U 25268AB  25336.50006943 -.01689532  00000+0 -11691-1 0  9990", "line2": "2 66582  42.9979 181.8068 0001494 278.3926 256.3365 15.76427910  3023"}}, "geometry": {"type": "Point", "coordinates": [-5.726925755103884, 5.205358019193115]}}, {"type": "Feature", "properties": {"norad_id": 66583, "name": "STARLINK-35941", "group": "last-30-days", "lat": 3.8923808202665184, "lon": -4.308797416587281, "alt_km": 343.511122166321, "timestamp": "2025-12-02T19:35:49.344194+00:00", "meta": {"OBJECT_NAME": "STARLINK-35941", "OBJECT_ID": "2025-268AC", "EPOCH": "2025-12-02T12:00:05.998752", "MEAN_MOTION": 15.76325623, "ECCENTRICITY": 0.0001523, "INCLINATION": 42.9979, "RA_OF_ASC_NODE": 181.8014, "ARG_OF_PERICENTER": 273.6232, "MEAN_ANOMALY": 263.113, "EPHEMERIS_TYPE": 0, "CLASSIFICATION_TYPE": "U", "NORAD_CAT_ID": 66583, "ELEMENT_SET_NO": 999, "REV_AT_EPOCH": 302, "BSTAR": -0.010984, "MEAN_MOTION_DOT": -0.0156186, "MEAN_MOTION_DDOT": 0}, "tle": {"line1": "1 66583U 25268AC  25336.50006943 -.01561860  00000+0 -10984-1 0  9998", "line2": "2 66583  42.9979 181.8014 0001523 273.6232 263.1130 15.76325623  3020"}}, "geometry": {"type": "Point", "coordinates": [-4.308797416587281, 3.8923808202665184]}}, {"type": "Feature", "properties": {"norad_id": 66584, "name": "STARLINK-35939", "group": "last-30-days", "lat": 2.5865385103977436, "lon": -2.904715523879386, "alt_km": 343.56302755402885, "timestamp": "2025-12-02T19:35:49.344204+00:00", "meta": {"OBJECT_NAME": "STARLINK-35939", "OBJECT_ID": "2025-268AD", "EPOCH": "2025-12-02T12:00:05.998752", "MEAN_MOTION": 15.76249796, "ECCENTRICITY": 0.0001572, "INCLINATION": 42.9981, "RA_OF_ASC_NODE": 181.7967, "ARG_OF_PERICENTER": 270.3003, "MEAN_ANOMALY": 268.3953, "EPHEMERIS_TYPE": 0, "CLASSIFICATION_TYPE": "U", "NORAD_CAT_ID": 66584, "ELEMENT_SET_NO": 999, "REV_AT_EPOCH": 302, "BSTAR": -0.010199, "MEAN_MOTION_DOT": -0.01459155, "MEAN_MOTION_DDOT": 0}, "tle": {"line1": "1 66584U 25268AD  25336.50006943 -.01459155  00000+0 -10199-1 0  9990", "line2": "2 66584  42.9981 181.7967 0001572 270.3003 268.3953 15.76249796  3020"}}, "geometry": {"type": "Point", "coordinates": [-2.904715523879386, 2.5865385103977436]}}, {"type": "Feature", "properties": {"norad_id": 66585, "name": "STARLINK-35963", "group": "last-30-days", "lat": 1.2766435591848844, "lon": -1.5006384713451624, "alt_km": 343.75217758870804, "timestamp": "2025-12-02T19:35:49.344214+00:00", "meta": {"OBJECT_NAME": "STARLINK-35963", "OBJECT_ID": "2025-268AE", "EPOCH": "2025-12-02T12:00:05.998752", "MEAN_MOTION": 15.76200938, "ECCENTRICITY": 0.0001804, "INCLINATION": 42.998, "RA_OF_ASC_NODE": 181.7922, "ARG_OF_PERICENTER": 265.368, "MEAN_ANOMALY": 275.3148, "EPHEMERIS_TYPE": 0, "CLASSIFICATION_TYPE": "U", "NORAD_CAT_ID": 66585, "ELEMENT_SET_NO": 999, "REV_AT_EPOCH": 302, "BSTAR": -0.010328, "MEAN_MOTION_DOT": -0.01472697, "MEAN_MOTION_DDOT": 0}, "tle": {"line1": "1 66585U 25268AE  25336.50006943 -.01472697  00000+0 -10328-1 0  9991", "line2": "2 66585  42.9980 181.7922 0001804 265.3680 275.3148 15.76200938  3023"}}, "geometry": {"type": "Point", "coordinates": [-1.5006384713451624, 1.2766435591848844]}}, {"type": "Feature", "properties": {"norad_id": 66586, "name": "TJS-21", "group": "last-30-days", "lat": 48.95471914828285, "lon": -119.1422233787045, "alt_km": 27157.59008649937, "timestamp": "2025-12-02T19:35:49.344232+00:00", "meta": {"OBJECT_NAME": "TJS-21", "OBJECT_ID": "2025-269A", "EPOCH": "2025-11-22T00:38:56.616288", "MEAN_MOTION": 2.0099221, "ECCENTRICITY": 0.75179873, "INCLINATION": 51.0366, "RA_OF_ASC_NODE": 174.7096, "ARG_OF_PERICENTER": 225.0489, "MEAN_ANOMALY": 41.6572, "EPHEMERIS_TYPE": 0, "CLASSIFICATION_TYPE": "U", "NORAD_CAT_ID": 66586, "ELEMENT_SET_NO": 999, "REV_AT_EPOCH": 2, "BSTAR": 0.00053569978, "MEAN_MOTION_DOT": 3.197e-05, "MEAN_MOTION_DDOT": 0}, "tle": {"line1": "1 66586U 25269A   25326.02704417  .00003197  00000+0  53570-3 0  9990", "line2": "2 66586  51.0366 174.7096 7517987 225.0489  41.6572  2.00992210    24"}}, "geometry": {"type": "Point", "coordinates": [-119.1422233787045, 48.95471914828285]}}, {"type": "Feature", "properties": {"norad_id": 66587, "name": "CZ-3B R/B", "group": "last-30-days", "lat": 51.24819488788199, "lon": -101.58482326892553, "alt_km": 20223.803019205436, "timestamp": "2025-12-02T19:35:49.344250+00:00", "meta": {"OBJECT_NAME": "CZ-3B R/B", "OBJECT_ID": "2025-269B", "EPOCH": "2025-11-23T12:20:01.405824", "MEAN_MOTION": 2.01516013, "ECCENTRICITY": 0.75253415, "INCLINATION": 51.3768, "RA_OF_ASC_NODE": 174.0599, "ARG_OF_PERICENTER": 225.2938, "MEAN_ANOMALY": 41.2116, "EPHEMERIS_TYPE": 0, "CLASSIFICATION_TYPE": "U", "NORAD_CAT_ID": 66587, "ELEMENT_SET_NO": 999, "REV_AT_EPOCH": 6, "BSTAR": 0.00049596604, "MEAN_MOTION_DOT": 0.0001032, "MEAN_MOTION_DDOT": -9.13844e-07}, "tle": {"line1": "1 66587U 25269B   25327.51390516  .00010320 -91384-6  49597-3 0  9990", "line2": "2 66587  51.3768 174.0599 7525341 225.2938  41.2116  2.01516013    67"}}, "geometry": {"type": "Point", "coordinates": [-101.58482326892553, 51.24819488788199]}}, {"type": "Feature", "properties": {"norad_id": 66588, "name": "STARLINK-36076", "group": "last-30-days", "lat": -42.977761881543174, "lon": 162.10214520580365, "alt_km": 333.95782092396985, "timestamp": "2025-12-02T19:35:49.344268+00:00", "meta": {"OBJECT_NAME": "STARLINK-36076", "OBJECT_ID": "2025-270A", "EPOCH": "2025-12-02T12:00:05.998752", "MEAN_MOTION": 15.8056807, "ECCENTRICITY": 0.0001758, "INCLINATION": 42.9989, "RA_OF_ASC_NODE": 253.8305, "ARG_OF_PERICENTER": 259.5576, "MEAN_ANOMALY": 8.2563, "EPHEMERIS_TYPE": 0, "CLASSIFICATION_TYPE": "U", "NORAD_CAT_ID": 66588, "ELEMENT_SET_NO": 999, "REV_AT_EPOCH": 275, "BSTAR": -0.0090246, "MEAN_MOTION_DOT": -0.01558503, "MEAN_MOTION_DDOT": 0}, "tle": {"line1": "1 66588U 25270A   25336.50006943 -.01558503  00000+0 -90246-2 0  9996", "line2": "2 66588  42.9989 253.8305 0001758 259.5576   8.2563 15.80568070  2750"}}, "geometry": {"type": "Point", "coordinates": [162.10214520580365, -42.977761881543174]}}, {"type": "Feature", "properties": {"norad_id": 66589, "name": "STARLINK-35447", "group": "last-30-days", "lat": -42.855050809330336, "lon": 167.1924169009328, "alt_km": 333.8638024530601, "timestamp": "2025-12-02T19:35:49.344278+00:00", "meta": {"OBJECT_NAME": "STARLINK-35447", "OBJECT_ID": "2025-270B", "EPOCH": "2025-12-02T12:00:05.998752", "MEAN_MOTION": 15.80615525, "ECCENTRICITY": 0.0001803, "INCLINATION": 42.9987, "RA_OF_ASC_NODE": 253.8212, "ARG_OF_PERICENTER": 254.4694, "MEAN_ANOMALY": 17.0335, "EPHEMERIS_TYPE": 0, "CLASSIFICATION_TYPE": "U", "NORAD_CAT_ID": 66589, "ELEMENT_SET_NO": 999, "REV_AT_EPOCH": 286, "BSTAR": -0.0090739, "MEAN_MOTION_DOT": -0.01569015, "MEAN_MOTION_DDOT": 0}, "tle": {"line1": "1 66589U 25270B   25336.50006943 -.01569015  00000+0 -90739-2 0  9994", "line2": "2 66589  42.9987 253.8212 0001803 254.4694  17.0335 15.80615525  2867"}}, "geometry": {"type": "Point", "coordinates": [167.1924169009328, -42.855050809330336]}}, {"type": "Feature", "properties": {"norad_id": 66590, "name": "STARLINK-35429", "group": "last-30-days", "lat": -42.947526708536095, "lon": 164.53044229874092, "alt_km": 333.8715450456266, "timestamp": "2025-12-02T19:35:49.344289+00:00", "meta": {"OBJECT_NAME": "STARLINK-35429", "OBJECT_ID": "2025-270C", "EPOCH": "2025-12-02T12:00:05.998752", "MEAN_MOTION": 15.80600203, "ECCENTRICITY": 0.0001752, "INCLINATION": 42.9988, "RA_OF_ASC_NODE": 253.8263, "ARG_OF_PERICENTER": 259.4564, "MEAN_ANOMALY": 10.102, "EPHEMERIS_TYPE": 0, "CLASSIFICATION_TYPE": "U", "NORAD_CAT_ID": 66590, "ELEMENT_SET_NO": 999, "REV_AT_EPOCH": 286, "BSTAR": -0.0089923, "MEAN_MOTION_DOT": -0.01555649, "MEAN_MOTION_DDOT": 0}, "tle": {"line1": "1 66590U 25270C   25336.50006943 -.01555649  00000+0 -89923-2 0  9997", "line2": "2 66590  42.9988 253.8263 0001752 259.4564  10.1020 15.80600203  2862"}}, "geometry": {"type": "Point", "coordinates": [164.53044229874092, -42.947526708536095]}}]}